{
    "links": {
        "self": "http://www.neowsapp.com/rest/v1/neo/3655561?api_key=iIulBulltgU6a56xZRHN4H3l9WmuAYTsLGpBGhQ2"
    },
    "id": "3655561",
    "neo_reference_id": "3655561",
    "name": "(2013 YJ48)",
    "designation": "2013 YJ48",
    "nasa_jpl_url": "http://ssd.jpl.nasa.gov/sbdb.cgi?sstr=3655561",
    "absolute_magnitude_h": 26.2,
    "estimated_diameter": {
        "kilometers": {
            "estimated_diameter_min": 0.0152951935,
            "estimated_diameter_max": 0.0342010925
        },
        "meters": {
            "estimated_diameter_min": 15.2951935344,
            "estimated_diameter_max": 34.201092472
        },
        "miles": {
            "estimated_diameter_min": 0.0095039897,
            "estimated_diameter_max": 0.021251567
        },
        "feet": {
            "estimated_diameter_min": 50.1810827555,
            "estimated_diameter_max": 112.2083122258
        }
    },
    "is_potentially_hazardous_asteroid": false,
    "close_approach_data": [
        {
            "close_approach_date": "1935-07-21",
            "close_approach_date_full": "1935-Jul-21 23:13",
            "epoch_date_close_approach": -1087087620000,
            "relative_velocity": {
                "kilometers_per_second": "14.513928756",
                "kilometers_per_hour": "52250.143521649",
                "miles_per_hour": "32466.2072343268"
            },
            "miss_distance": {
                "astronomical": "0.0992506962",
                "lunar": "38.6085208218",
                "kilometers": "14847692.747537094",
                "miles": "9225928.4613321372"
            },
            "orbiting_body": "Earth"
        },
        {
            "close_approach_date": "2013-12-24",
            "close_approach_date_full": "2013-Dec-24 04:39",
            "epoch_date_close_approach": 1387859940000,
            "relative_velocity": {
                "kilometers_per_second": "15.3110499825",
                "kilometers_per_hour": "55119.7799368502",
                "miles_per_hour": "34249.2877057612"
            },
            "miss_distance": {
                "astronomical": "0.0162679607",
                "lunar": "6.3282367123",
                "kilometers": "2433652.269963709",
                "miles": "1512201.3988448242"
            },
            "orbiting_body": "Earth"
        },
        {
            "close_approach_date": "2015-07-24",
            "close_approach_date_full": "2015-Jul-24 10:30",
            "epoch_date_close_approach": 1437733800000,
            "relative_velocity": {
                "kilometers_per_second": "13.6851292612",
                "kilometers_per_hour": "49266.4653401598",
                "miles_per_hour": "30612.2656442787"
            },
            "miss_distance": {
                "astronomical": "0.1096693436",
                "lunar": "42.6613746604",
                "kilometers": "16406300.206858132",
                "miles": "10194402.2278289416"
            },
            "orbiting_body": "Earth"
        }
    ],
    "orbital_data": {
        "orbit_id": "6",
        "orbit_determination_date": "2017-04-06 08:43:06",
        "first_observation_date": "2013-12-29",
        "last_observation_date": "2014-01-09",
        "data_arc_in_days": 11,
        "observations_used": 13,
        "orbit_uncertainty": "8",
        "minimum_orbit_intersection": ".00768444",
        "jupiter_tisserand_invariant": "4.350",
        "epoch_osculation": "2456660.5",
        "eccentricity": ".496276221826442",
        "semi_major_axis": "1.515149745401477",
        "inclination": "12.19416460288246",
        "ascending_node_longitude": "273.2286837609551",
        "orbital_period": "681.211173230103",
        "perihelion_distance": ".7632169542523366",
        "perihelion_argument": "106.5417608436537",
        "aphelion_distance": "2.267082536550618",
        "perihelion_time": "2456602.994745259803",
        "mean_anomaly": "30.38982993820939",
        "mean_motion": ".5284704863148176",
        "equinox": "J2000",
        "orbit_class": {
            "orbit_class_type": "APO",
            "orbit_class_description": "Near-Earth asteroid orbits which cross the Earth’s orbit similar to that of 1862 Apollo",
            "orbit_class_range": "a (semi-major axis) > 1.0 AU; q (perihelion) < 1.017 AU"
        }
    },
    "is_sentry_object": false
}